VSP RF A1               
1 59135U 24043AP  26066.03073316  .00000577  00000+0  25199-4 0  9997
2 59135  97.5247 201.5379 0009431 234.6315 125.4042 15.26179596111403
STARLINK-36054          
1 66812U 25278X   26068.52482990  .00028860  00000+0  10530-2 0  9992
2 66812  43.0022 115.3149 0001475 293.8382  66.2315 15.27616009 15187
