[{"OBJECT_NAME":"VSP RF A1","OBJECT_ID":"2024-043AP","EPOCH":"2026-03-07T00:44:15.345024","MEAN_MOTION":15.26179596,"ECCENTRICITY":0.00094313,"INCLINATION":97.5247,"RA_OF_ASC_NODE":201.5379,"ARG_OF_PERICENTER":234.6315,"MEAN_ANOMALY":125.4042,"EPHEMERIS_TYPE":0,"CLASSIFICATION_TYPE":"U","NORAD_CAT_ID":59135,"ELEMENT_SET_NO":999,"REV_AT_EPOCH":11140,"BSTAR":2.5198753e-5,"MEAN_MOTION_DOT":5.77e-6,"MEAN_MOTION_DDOT":0},{"OBJECT_NAME":"STARLINK-36054","OBJECT_ID":"2025-278X","EPOCH":"2026-03-09T12:35:45.303360","MEAN_MOTION":15.27616009,"ECCENTRICITY":0.0001475,"INCLINATION":43.0022,"RA_OF_ASC_NODE":115.3149,"ARG_OF_PERICENTER":293.8382,"MEAN_ANOMALY":66.2315,"EPHEMERIS_TYPE":0,"CLASSIFICATION_TYPE":"U","NORAD_CAT_ID":66812,"ELEMENT_SET_NO":999,"REV_AT_EPOCH":1518,"BSTAR":0.001053,"MEAN_MOTION_DOT":0.0002886,"MEAN_MOTION_DDOT":0}]
